CCSDS_OMM_VERS = 2.0
CREATION_DATE  = 
ORIGINATOR     = 

OBJECT_NAME    = CZ-2F DEB
OBJECT_ID      = 2026-024E
CENTER_NAME    = EARTH
REF_FRAME      = TEME
TIME_SYSTEM    = UTC
MEAN_ELEMENT_THEORY = SGP/SGP4

EPOCH          = 2026-02-17T15:19:59.033280
MEAN_MOTION    = 15.16778101
ECCENTRICITY   = .0260566
INCLINATION    = 50.3134
RA_OF_ASC_NODE = 116.6280
ARG_OF_PERICENTER = 201.1836
MEAN_ANOMALY   = 157.8171

EPHEMERIS_TYPE = 0
CLASSIFICATION_TYPE = U
NORAD_CAT_ID   = 67718
ELEMENT_SET_NO = 999
REV_AT_EPOCH   = 158
BSTAR          = .44967E-2
MEAN_MOTION_DOT = .225116E-2
MEAN_MOTION_DDOT = 0

CCSDS_OMM_VERS = 2.0
CREATION_DATE  = 
ORIGINATOR     = 

OBJECT_NAME    = CZ-2F DEB
OBJECT_ID      = 2026-024F
CENTER_NAME    = EARTH
REF_FRAME      = TEME
TIME_SYSTEM    = UTC
MEAN_ELEMENT_THEORY = SGP/SGP4

EPOCH          = 2026-02-17T15:16:43.776192
MEAN_MOTION    = 14.97352499
ECCENTRICITY   = .033357
INCLINATION    = 49.7904
RA_OF_ASC_NODE = 117.9711
ARG_OF_PERICENTER = 191.1428
MEAN_ANOMALY   = 168.1994

EPHEMERIS_TYPE = 0
CLASSIFICATION_TYPE = U
NORAD_CAT_ID   = 67719
ELEMENT_SET_NO = 999
REV_AT_EPOCH   = 123
BSTAR          = .42988E-2
MEAN_MOTION_DOT = .16785E-2
MEAN_MOTION_DDOT = 0

CCSDS_OMM_VERS = 2.0
CREATION_DATE  = 
ORIGINATOR     = 

OBJECT_NAME    = CZ-2F DEB
OBJECT_ID      = 2026-024G
CENTER_NAME    = EARTH
REF_FRAME      = TEME
TIME_SYSTEM    = UTC
MEAN_ELEMENT_THEORY = SGP/SGP4

EPOCH          = 2026-02-17T15:43:39.601344
MEAN_MOTION    = 14.94690651
ECCENTRICITY   = .0344226
INCLINATION    = 49.8300
RA_OF_ASC_NODE = 118.0856
ARG_OF_PERICENTER = 187.7871
MEAN_ANOMALY   = 171.7641

EPHEMERIS_TYPE = 0
CLASSIFICATION_TYPE = U
NORAD_CAT_ID   = 67720
ELEMENT_SET_NO = 999
REV_AT_EPOCH   = 155
BSTAR          = .44796E-2
MEAN_MOTION_DOT = .170426E-2
MEAN_MOTION_DDOT = 0

CCSDS_OMM_VERS = 2.0
CREATION_DATE  = 
ORIGINATOR     = 

OBJECT_NAME    = 2026-027A
OBJECT_ID      = 2026-027A
CENTER_NAME    = EARTH
REF_FRAME      = TEME
TIME_SYSTEM    = UTC
MEAN_ELEMENT_THEORY = SGP/SGP4

EPOCH          = 2026-02-17T18:56:54.923712
MEAN_MOTION    = 15.17304626
ECCENTRICITY   = .0009209
INCLINATION    = 97.4880
RA_OF_ASC_NODE = 178.0220
ARG_OF_PERICENTER = 268.9101
MEAN_ANOMALY   = 91.1078

EPHEMERIS_TYPE = 0
CLASSIFICATION_TYPE = U
NORAD_CAT_ID   = 67746
ELEMENT_SET_NO = 999
REV_AT_EPOCH   = 84
BSTAR          = .39252E-3
MEAN_MOTION_DOT = .7766E-4
MEAN_MOTION_DDOT = 0

CCSDS_OMM_VERS = 2.0
CREATION_DATE  = 
ORIGINATOR     = 

OBJECT_NAME    = 2026-027B
OBJECT_ID      = 2026-027B
CENTER_NAME    = EARTH
REF_FRAME      = TEME
TIME_SYSTEM    = UTC
MEAN_ELEMENT_THEORY = SGP/SGP4

EPOCH          = 2026-02-17T18:56:23.107776
MEAN_MOTION    = 15.17406017
ECCENTRICITY   = .0009378
INCLINATION    = 97.4874
RA_OF_ASC_NODE = 178.0220
ARG_OF_PERICENTER = 271.5633
MEAN_ANOMALY   = 88.4526

EPHEMERIS_TYPE = 0
CLASSIFICATION_TYPE = U
NORAD_CAT_ID   = 67747
ELEMENT_SET_NO = 999
REV_AT_EPOCH   = 84
BSTAR          = .39089E-3
MEAN_MOTION_DOT = .7757E-4
MEAN_MOTION_DDOT = 0

CCSDS_OMM_VERS = 2.0
CREATION_DATE  = 
ORIGINATOR     = 

OBJECT_NAME    = 2026-027C
OBJECT_ID      = 2026-027C
CENTER_NAME    = EARTH
REF_FRAME      = TEME
TIME_SYSTEM    = UTC
MEAN_ELEMENT_THEORY = SGP/SGP4

EPOCH          = 2026-02-17T18:55:39.151776
MEAN_MOTION    = 15.17530810
ECCENTRICITY   = .0009779
INCLINATION    = 97.4886
RA_OF_ASC_NODE = 178.0236
ARG_OF_PERICENTER = 274.7958
MEAN_ANOMALY   = 85.2159

EPHEMERIS_TYPE = 0
CLASSIFICATION_TYPE = U
NORAD_CAT_ID   = 67748
ELEMENT_SET_NO = 999
REV_AT_EPOCH   = 84
BSTAR          = .28423E-3
MEAN_MOTION_DOT = .5641E-4
MEAN_MOTION_DDOT = 0

CCSDS_OMM_VERS = 2.0
CREATION_DATE  = 
ORIGINATOR     = 

OBJECT_NAME    = 2026-027D
OBJECT_ID      = 2026-027D
CENTER_NAME    = EARTH
REF_FRAME      = TEME
TIME_SYSTEM    = UTC
MEAN_ELEMENT_THEORY = SGP/SGP4

EPOCH          = 2026-02-17T18:54:53.060832
MEAN_MOTION    = 15.17700182
ECCENTRICITY   = .0009623
INCLINATION    = 97.4882
RA_OF_ASC_NODE = 178.0240
ARG_OF_PERICENTER = 279.0977
MEAN_ANOMALY   = 80.9167

EPHEMERIS_TYPE = 0
CLASSIFICATION_TYPE = U
NORAD_CAT_ID   = 67749
ELEMENT_SET_NO = 999
REV_AT_EPOCH   = 79
BSTAR          = .46376E-3
MEAN_MOTION_DOT = .9296E-4
MEAN_MOTION_DDOT = 0

CCSDS_OMM_VERS = 2.0
CREATION_DATE  = 
ORIGINATOR     = 

OBJECT_NAME    = 2026-027E
OBJECT_ID      = 2026-027E
CENTER_NAME    = EARTH
REF_FRAME      = TEME
TIME_SYSTEM    = UTC
MEAN_ELEMENT_THEORY = SGP/SGP4

EPOCH          = 2026-02-17T18:54:48.638880
MEAN_MOTION    = 15.17709672
ECCENTRICITY   = .0008758
INCLINATION    = 97.4892
RA_OF_ASC_NODE = 178.0250
ARG_OF_PERICENTER = 281.0759
MEAN_ANOMALY   = 78.9489

EPHEMERIS_TYPE = 0
CLASSIFICATION_TYPE = U
NORAD_CAT_ID   = 67750
ELEMENT_SET_NO = 999
REV_AT_EPOCH   = 84
BSTAR          = .40851E-3
MEAN_MOTION_DOT = .818E-4
MEAN_MOTION_DDOT = 0

CCSDS_OMM_VERS = 2.0
CREATION_DATE  = 
ORIGINATOR     = 

OBJECT_NAME    = 2026-027F
OBJECT_ID      = 2026-027F
CENTER_NAME    = EARTH
REF_FRAME      = TEME
TIME_SYSTEM    = UTC
MEAN_ELEMENT_THEORY = SGP/SGP4

EPOCH          = 2026-02-17T18:54:31.593024
MEAN_MOTION    = 15.17795434
ECCENTRICITY   = .0009908
INCLINATION    = 97.4893
RA_OF_ASC_NODE = 178.0256
ARG_OF_PERICENTER = 279.7449
MEAN_ANOMALY   = 80.2666

EPHEMERIS_TYPE = 0
CLASSIFICATION_TYPE = U
NORAD_CAT_ID   = 67751
ELEMENT_SET_NO = 999
REV_AT_EPOCH   = 84
BSTAR          = .67197E-3
MEAN_MOTION_DOT = .13546E-3
MEAN_MOTION_DDOT = 0

CCSDS_OMM_VERS = 2.0
CREATION_DATE  = 
ORIGINATOR     = 

OBJECT_NAME    = 2026-027G
OBJECT_ID      = 2026-027G
CENTER_NAME    = EARTH
REF_FRAME      = TEME
TIME_SYSTEM    = UTC
MEAN_ELEMENT_THEORY = SGP/SGP4

EPOCH          = 2026-02-17T18:54:22.607424
MEAN_MOTION    = 15.17795616
ECCENTRICITY   = .0009102
INCLINATION    = 97.4887
RA_OF_ASC_NODE = 178.0250
ARG_OF_PERICENTER = 283.0158
MEAN_ANOMALY   = 77.0059

EPHEMERIS_TYPE = 0
CLASSIFICATION_TYPE = U
NORAD_CAT_ID   = 67752
ELEMENT_SET_NO = 999
REV_AT_EPOCH   = 84
BSTAR          = .43102E-3
MEAN_MOTION_DOT = .8657E-4
MEAN_MOTION_DDOT = 0

CCSDS_OMM_VERS = 2.0
CREATION_DATE  = 
ORIGINATOR     = 

OBJECT_NAME    = 2026-027H
OBJECT_ID      = 2026-027H
CENTER_NAME    = EARTH
REF_FRAME      = TEME
TIME_SYSTEM    = UTC
MEAN_ELEMENT_THEORY = SGP/SGP4

EPOCH          = 2026-02-17T20:09:16.127136
MEAN_MOTION    = 15.59556580
ECCENTRICITY   = .0268381
INCLINATION    = 97.5139
RA_OF_ASC_NODE = 178.4642
ARG_OF_PERICENTER = 318.9367
MEAN_ANOMALY   = 39.1955

EPHEMERIS_TYPE = 0
CLASSIFICATION_TYPE = U
NORAD_CAT_ID   = 67753
ELEMENT_SET_NO = 999
REV_AT_EPOCH   = 87
BSTAR          = .67344E-3
MEAN_MOTION_DOT = .353548E-2
MEAN_MOTION_DDOT = .23056E-5

CCSDS_OMM_VERS = 2.0
CREATION_DATE  = 
ORIGINATOR     = 

OBJECT_NAME    = 2026-027J
OBJECT_ID      = 2026-027J
CENTER_NAME    = EARTH
REF_FRAME      = TEME
TIME_SYSTEM    = UTC
MEAN_ELEMENT_THEORY = SGP/SGP4

EPOCH          = 2026-02-17T19:57:34.558272
MEAN_MOTION    = 15.64203780
ECCENTRICITY   = .0250639
INCLINATION    = 97.5114
RA_OF_ASC_NODE = 178.4763
ARG_OF_PERICENTER = 318.4984
MEAN_ANOMALY   = 39.7475

EPHEMERIS_TYPE = 0
CLASSIFICATION_TYPE = U
NORAD_CAT_ID   = 67754
ELEMENT_SET_NO = 999
REV_AT_EPOCH   = 81
BSTAR          = .13433E-2
MEAN_MOTION_DOT = .754842E-2
MEAN_MOTION_DDOT = .23427E-5

