CZ-2F DEB               
1 67718U 26024E   26048.63887770  .00225116  00000+0  44967-2 0  9997
2 67718  50.3134 116.6280 0260566 201.1836 157.8171 15.16778101  1588
CZ-2F DEB               
1 67719U 26024F   26048.63661778  .00167850  00000+0  42988-2 0  9997
2 67719  49.7904 117.9711 0333570 191.1428 168.1994 14.97352499  1236
CZ-2F DEB               
1 67720U 26024G   26048.65531946  .00170426  00000+0  44796-2 0  9996
2 67720  49.8300 118.0856 0344226 187.7871 171.7641 14.94690651  1550
2026-027A               
1 67746U 26027A   26048.78952458  .00007766  00000+0  39252-3 0  9994
2 67746  97.4880 178.0220 0009209 268.9101  91.1078 15.17304626   848
2026-027B               
1 67747U 26027B   26048.78915634  .00007757  00000+0  39089-3 0  9998
2 67747  97.4874 178.0220 0009378 271.5633  88.4526 15.17406017   843
2026-027C               
1 67748U 26027C   26048.78864759  .00005641  00000+0  28423-3 0  9990
2 67748  97.4886 178.0236 0009779 274.7958  85.2159 15.17530810   840
2026-027D               
1 67749U 26027D   26048.78811413  .00009296  00000+0  46376-3 0  9997
2 67749  97.4882 178.0240 0009623 279.0977  80.9167 15.17700182   795
2026-027E               
1 67750U 26027E   26048.78806295  .00008180  00000+0  40851-3 0  9994
2 67750  97.4892 178.0250 0008758 281.0759  78.9489 15.17709672   841
2026-027F               
1 67751U 26027F   26048.78786566  .00013546  00000+0  67197-3 0  9997
2 67751  97.4893 178.0256 0009908 279.7449  80.2666 15.17795434   841
2026-027G               
1 67752U 26027G   26048.78776166  .00008657  00000+0  43102-3 0  9990
2 67752  97.4887 178.0250 0009102 283.0158  77.0059 15.17795616   842
2026-027H               
1 67753U 26027H   26048.83976999  .00353548  23056-5  67344-3 0  9991
2 67753  97.5139 178.4642 0268381 318.9367  39.1955 15.59556580   877
2026-027J               
1 67754U 26027J   26048.83164998  .00754842  23427-5  13433-2 0  9993
2 67754  97.5114 178.4763 0250639 318.4984  39.7475 15.64203780   816
